CCSDS_OMM_VERS = 2.0
CREATION_DATE  = 
ORIGINATOR     = 

OBJECT_NAME    = SL-3 R/B
OBJECT_ID      = 1982-079B
CENTER_NAME    = EARTH
REF_FRAME      = TEME
TIME_SYSTEM    = UTC
MEAN_ELEMENT_THEORY = SGP/SGP4

EPOCH          = 2026-03-09T11:16:49.402272
MEAN_MOTION    = 15.24797239
ECCENTRICITY   = .0025053
INCLINATION    = 81.1482
RA_OF_ASC_NODE = 193.3363
ARG_OF_PERICENTER = 165.5929
MEAN_ANOMALY   = 194.6024

EPHEMERIS_TYPE = 0
CLASSIFICATION_TYPE = U
NORAD_CAT_ID   = 13403
ELEMENT_SET_NO = 999
REV_AT_EPOCH   = 37766
BSTAR          = .33119E-3
MEAN_MOTION_DOT = .8314E-4
MEAN_MOTION_DDOT = 0

CCSDS_OMM_VERS = 2.0
CREATION_DATE  = 
ORIGINATOR     = 

OBJECT_NAME    = SL-14 R/B
OBJECT_ID      = 1982-092B
CENTER_NAME    = EARTH
REF_FRAME      = TEME
TIME_SYSTEM    = UTC
MEAN_ELEMENT_THEORY = SGP/SGP4

EPOCH          = 2026-03-09T07:23:35.558016
MEAN_MOTION    = 14.86665887
ECCENTRICITY   = .0019009
INCLINATION    = 82.5696
RA_OF_ASC_NODE = 141.7565
ARG_OF_PERICENTER = 304.9287
MEAN_ANOMALY   = 121.8021

EPHEMERIS_TYPE = 0
CLASSIFICATION_TYPE = U
NORAD_CAT_ID   = 13553
ELEMENT_SET_NO = 999
REV_AT_EPOCH   = 32887
BSTAR          = .61137E-4
MEAN_MOTION_DOT = .569E-5
MEAN_MOTION_DDOT = 0

CCSDS_OMM_VERS = 2.0
CREATION_DATE  = 
ORIGINATOR     = 

OBJECT_NAME    = SL-3 R/B
OBJECT_ID      = 1983-010B
CENTER_NAME    = EARTH
REF_FRAME      = TEME
TIME_SYSTEM    = UTC
MEAN_ELEMENT_THEORY = SGP/SGP4

EPOCH          = 2026-03-09T07:23:33.080928
MEAN_MOTION    = 15.46341007
ECCENTRICITY   = .0018055
INCLINATION    = 81.1061
RA_OF_ASC_NODE = 2.7152
ARG_OF_PERICENTER = 52.3179
MEAN_ANOMALY   = 307.9700

EPHEMERIS_TYPE = 0
CLASSIFICATION_TYPE = U
NORAD_CAT_ID   = 13819
ELEMENT_SET_NO = 999
REV_AT_EPOCH   = 35788
BSTAR          = .38268E-3
MEAN_MOTION_DOT = .19052E-3
MEAN_MOTION_DDOT = 0

CCSDS_OMM_VERS = 2.0
CREATION_DATE  = 
ORIGINATOR     = 

OBJECT_NAME    = SL-3 R/B
OBJECT_ID      = 1983-075B
CENTER_NAME    = EARTH
REF_FRAME      = TEME
TIME_SYSTEM    = UTC
MEAN_ELEMENT_THEORY = SGP/SGP4

EPOCH          = 2026-03-09T11:48:26.265888
MEAN_MOTION    = 15.38412190
ECCENTRICITY   = .0020097
INCLINATION    = 97.6146
RA_OF_ASC_NODE = 73.0616
ARG_OF_PERICENTER = 226.6725
MEAN_ANOMALY   = 133.2845

EPHEMERIS_TYPE = 0
CLASSIFICATION_TYPE = U
NORAD_CAT_ID   = 14208
ELEMENT_SET_NO = 999
REV_AT_EPOCH   = 33012
BSTAR          = .34094E-3
MEAN_MOTION_DOT = .12922E-3
MEAN_MOTION_DDOT = 0

CCSDS_OMM_VERS = 2.0
CREATION_DATE  = 
ORIGINATOR     = 

OBJECT_NAME    = COSMOS 1536
OBJECT_ID      = 1984-013A
CENTER_NAME    = EARTH
REF_FRAME      = TEME
TIME_SYSTEM    = UTC
MEAN_ELEMENT_THEORY = SGP/SGP4

EPOCH          = 2026-03-09T12:33:00.331200
MEAN_MOTION    = 15.23821576
ECCENTRICITY   = .0012474
INCLINATION    = 82.5428
RA_OF_ASC_NODE = 108.0163
ARG_OF_PERICENTER = 284.1309
MEAN_ANOMALY   = 75.8542

EPHEMERIS_TYPE = 0
CLASSIFICATION_TYPE = U
NORAD_CAT_ID   = 14699
ELEMENT_SET_NO = 999
REV_AT_EPOCH   = 27259
BSTAR          = .2991E-3
MEAN_MOTION_DOT = .7251E-4
MEAN_MOTION_DDOT = 0

CCSDS_OMM_VERS = 2.0
CREATION_DATE  = 
ORIGINATOR     = 

OBJECT_NAME    = SL-14 R/B
OBJECT_ID      = 1984-027B
CENTER_NAME    = EARTH
REF_FRAME      = TEME
TIME_SYSTEM    = UTC
MEAN_ELEMENT_THEORY = SGP/SGP4

EPOCH          = 2026-03-09T13:24:11.904768
MEAN_MOTION    = 14.85976300
ECCENTRICITY   = .0017343
INCLINATION    = 82.5386
RA_OF_ASC_NODE = 245.1358
ARG_OF_PERICENTER = 338.4430
MEAN_ANOMALY   = 21.6054

EPHEMERIS_TYPE = 0
CLASSIFICATION_TYPE = U
NORAD_CAT_ID   = 14820
ELEMENT_SET_NO = 999
REV_AT_EPOCH   = 24761
BSTAR          = .722E-4
MEAN_MOTION_DOT = .656E-5
MEAN_MOTION_DDOT = 0

CCSDS_OMM_VERS = 2.0
CREATION_DATE  = 
ORIGINATOR     = 

OBJECT_NAME    = SL-8 R/B
OBJECT_ID      = 1985-006B
CENTER_NAME    = EARTH
REF_FRAME      = TEME
TIME_SYSTEM    = UTC
MEAN_ELEMENT_THEORY = SGP/SGP4

EPOCH          = 2026-03-09T12:28:52.021920
MEAN_MOTION    = 14.37782621
ECCENTRICITY   = .001845
INCLINATION    = 74.0432
RA_OF_ASC_NODE = 261.4607
ARG_OF_PERICENTER = 179.3090
MEAN_ANOMALY   = 248.2163

EPHEMERIS_TYPE = 0
CLASSIFICATION_TYPE = U
NORAD_CAT_ID   = 15483
ELEMENT_SET_NO = 999
REV_AT_EPOCH   = 15400
BSTAR          = .1234E-3
MEAN_MOTION_DOT = .346E-5
MEAN_MOTION_DDOT = 0

CCSDS_OMM_VERS = 2.0
CREATION_DATE  = 
ORIGINATOR     = 

OBJECT_NAME    = SL-12 R/B(2)
OBJECT_ID      = 1985-042D
CENTER_NAME    = EARTH
REF_FRAME      = TEME
TIME_SYSTEM    = UTC
MEAN_ELEMENT_THEORY = SGP/SGP4

EPOCH          = 2026-03-09T12:01:15.473856
MEAN_MOTION    = 14.21982311
ECCENTRICITY   = .0033256
INCLINATION    = 71.1062
RA_OF_ASC_NODE = 88.1277
ARG_OF_PERICENTER = 128.4726
MEAN_ANOMALY   = 23.4074

EPHEMERIS_TYPE = 0
CLASSIFICATION_TYPE = U
NORAD_CAT_ID   = 15772
ELEMENT_SET_NO = 999
REV_AT_EPOCH   = 11436
BSTAR          = .38313E-4
MEAN_MOTION_DOT = .38E-6
MEAN_MOTION_DDOT = 0

CCSDS_OMM_VERS = 2.0
CREATION_DATE  = 
ORIGINATOR     = 

OBJECT_NAME    = SL-14 R/B
OBJECT_ID      = 1985-069B
CENTER_NAME    = EARTH
REF_FRAME      = TEME
TIME_SYSTEM    = UTC
MEAN_ELEMENT_THEORY = SGP/SGP4

EPOCH          = 2026-03-09T08:11:32.112960
MEAN_MOTION    = 14.86432515
ECCENTRICITY   = .0018439
INCLINATION    = 82.5285
RA_OF_ASC_NODE = 25.2603
ARG_OF_PERICENTER = 188.8548
MEAN_ANOMALY   = 171.2347

EPHEMERIS_TYPE = 0
CLASSIFICATION_TYPE = U
NORAD_CAT_ID   = 15945
ELEMENT_SET_NO = 999
REV_AT_EPOCH   = 17278
BSTAR          = .7682E-4
MEAN_MOTION_DOT = .704E-5
MEAN_MOTION_DDOT = 0

CCSDS_OMM_VERS = 2.0
CREATION_DATE  = 
ORIGINATOR     = 

OBJECT_NAME    = SL-16 R/B
OBJECT_ID      = 1985-097B
CENTER_NAME    = EARTH
REF_FRAME      = TEME
TIME_SYSTEM    = UTC
MEAN_ELEMENT_THEORY = SGP/SGP4

EPOCH          = 2026-03-09T13:42:16.593696
MEAN_MOTION    = 14.16598866
ECCENTRICITY   = .0009922
INCLINATION    = 71.0029
RA_OF_ASC_NODE = 140.8044
ARG_OF_PERICENTER = 259.9549
MEAN_ANOMALY   = 202.4320

EPHEMERIS_TYPE = 0
CLASSIFICATION_TYPE = U
NORAD_CAT_ID   = 16182
ELEMENT_SET_NO = 999
REV_AT_EPOCH   = 8721
BSTAR          = -.73307E-4
MEAN_MOTION_DOT = -.194E-5
MEAN_MOTION_DDOT = 0

CCSDS_OMM_VERS = 2.0
CREATION_DATE  = 
ORIGINATOR     = 

OBJECT_NAME    = SL-14 R/B
OBJECT_ID      = 1986-006B
CENTER_NAME    = EARTH
REF_FRAME      = TEME
TIME_SYSTEM    = UTC
MEAN_ELEMENT_THEORY = SGP/SGP4

EPOCH          = 2026-03-09T12:29:22.085664
MEAN_MOTION    = 14.86814537
ECCENTRICITY   = .0075051
INCLINATION    = 82.5233
RA_OF_ASC_NODE = 259.8966
ARG_OF_PERICENTER = 273.3708
MEAN_ANOMALY   = 85.8925

EPHEMERIS_TYPE = 0
CLASSIFICATION_TYPE = U
NORAD_CAT_ID   = 16496
ELEMENT_SET_NO = 999
REV_AT_EPOCH   = 14918
BSTAR          = .83601E-4
MEAN_MOTION_DOT = .809E-5
MEAN_MOTION_DDOT = 0

CCSDS_OMM_VERS = 2.0
CREATION_DATE  = 
ORIGINATOR     = 

OBJECT_NAME    = COSMOS 1743
OBJECT_ID      = 1986-034A
CENTER_NAME    = EARTH
REF_FRAME      = TEME
TIME_SYSTEM    = UTC
MEAN_ELEMENT_THEORY = SGP/SGP4

EPOCH          = 2026-03-09T10:47:12.340896
MEAN_MOTION    = 15.58526486
ECCENTRICITY   = .0001656
INCLINATION    = 82.5296
RA_OF_ASC_NODE = 74.0830
ARG_OF_PERICENTER = 296.6457
MEAN_ANOMALY   = 63.4629

EPHEMERIS_TYPE = 0
CLASSIFICATION_TYPE = U
NORAD_CAT_ID   = 16719
ELEMENT_SET_NO = 999
REV_AT_EPOCH   = 18021
BSTAR          = .44928E-3
MEAN_MOTION_DOT = .34437E-3
MEAN_MOTION_DDOT = 0

