SL-3 R/B                
1 13403U 82079B   26068.47001623  .00008314  00000+0  33119-3 0  9997
2 13403  81.1482 193.3363 0025053 165.5929 194.6024 15.24797239377661
SL-14 R/B               
1 13553U 82092B   26068.30805044  .00000569  00000+0  61137-4 0  9995
2 13553  82.5696 141.7565 0019009 304.9287 121.8021 14.86665887328878
SL-3 R/B                
1 13819U 83010B   26068.30802177  .00019052  00000+0  38268-3 0  9990
2 13819  81.1061   2.7152 0018055  52.3179 307.9700 15.46341007357882
SL-3 R/B                
1 14208U 83075B   26068.49197067  .00012922  00000+0  34094-3 0  9991
2 14208  97.6146  73.0616 0020097 226.6725 133.2845 15.38412190330120
COSMOS 1536             
1 14699U 84013A   26068.52292050  .00007251  00000+0  29910-3 0  9990
2 14699  82.5428 108.0163 0012474 284.1309  75.8542 15.23821576272590
SL-14 R/B               
1 14820U 84027B   26068.55847112  .00000656  00000+0  72200-4 0  9992
2 14820  82.5386 245.1358 0017343 338.4430  21.6054 14.85976300247611
SL-8 R/B                
1 15483U 85006B   26068.52004655  .00000346  00000+0  12340-3 0  9994
2 15483  74.0432 261.4607 0018450 179.3090 248.2163 14.37782621154003
SL-12 R/B(2)            
1 15772U 85042D   26068.50087354  .00000038  00000+0  38313-4 0  9997
2 15772  71.1062  88.1277 0033256 128.4726  23.4074 14.21982311114360
SL-14 R/B               
1 15945U 85069B   26068.34134390  .00000704  00000+0  76820-4 0  9998
2 15945  82.5285  25.2603 0018439 188.8548 171.2347 14.86432515172780
SL-16 R/B               
1 16182U 85097B   26068.57102539 -.00000194  00000+0 -73307-4 0  9990
2 16182  71.0029 140.8044 0009922 259.9549 202.4320 14.16598866 87210
SL-14 R/B               
1 16496U 86006B   26068.52039451  .00000809  00000+0  83601-4 0  9995
2 16496  82.5233 259.8966 0075051 273.3708  85.8925 14.86814537149181
COSMOS 1743             
1 16719U 86034A   26068.44944839  .00034437  00000+0  44928-3 0  9992
2 16719  82.5296  74.0830 0001656 296.6457  63.4629 15.58526486180219
